{
  "type": "FeatureCollection",
  "awr": {
    "schema": "awr.zones.v1",
    "schema_version": "1.0.0",
    "world_id": "chicago",
    "frame": "world",
    "units": "m",
    "coordinate_sha256": "89c4275fa3f096674f1cf1003a241c72ac23d70170245230ff2a38ccfa546101",
    "source_sha256": null
  },
  "features": [
    {
      "type": "Feature",
      "id": "nofly-chi-hancock",
      "geometry": {
        "type": "Polygon",
        "coordinates": [
          [
            [65, 1636],
            [63.463, 1651.607],
            [58.91, 1666.615],
            [51.518, 1680.446],
            [41.569, 1692.569],
            [29.446, 1702.518],
            [15.615, 1709.91],
            [0.607, 1714.463],
            [-15, 1716],
            [-30.607, 1714.463],
            [-45.615, 1709.91],
            [-59.446, 1702.518],
            [-71.569, 1692.569],
            [-81.518, 1680.446],
            [-88.91, 1666.615],
            [-93.463, 1651.607],
            [-95, 1636],
            [-93.463, 1620.393],
            [-88.91, 1605.385],
            [-81.518, 1591.554],
            [-71.569, 1579.431],
            [-59.446, 1569.482],
            [-45.615, 1562.09],
            [-30.607, 1557.537],
            [-15, 1556],
            [0.607, 1557.537],
            [15.615, 1562.09],
            [29.446, 1569.482],
            [41.569, 1579.431],
            [51.518, 1591.554],
            [58.91, 1605.385],
            [63.463, 1620.393],
            [65, 1636]
          ]
        ]
      },
      "properties": {
        "zone_id": "nofly-chi-hancock",
        "kind": "nofly",
        "min_z_m": null,
        "max_z_m": null,
        "label": "No-fly: John Hancock Center",
        "label_zh": "禁飞区：汉考克中心",
        "origin": "curated",
        "editable": false
      }
    }
  ]
}
