{
  "type": "FeatureCollection",
  "awr": {
    "schema": "awr.zones.v1",
    "schema_version": "1.0.0",
    "world_id": "newyork",
    "frame": "world",
    "units": "m",
    "coordinate_sha256": "fa085ce97008ff87ce7d959e066f658bed5b667192ef1aae141c52dd58c5b384",
    "source_sha256": null
  },
  "features": [
    {
      "type": "Feature",
      "id": "nofly-ny-70pine",
      "geometry": {
        "type": "Polygon",
        "coordinates": [
          [
            [-374.1, -741.3],
            [-375.253, -729.595],
            [-378.667, -718.339],
            [-384.212, -707.966],
            [-391.674, -698.874],
            [-400.766, -691.412],
            [-411.139, -685.867],
            [-422.395, -682.453],
            [-434.1, -681.3],
            [-445.805, -682.453],
            [-457.061, -685.867],
            [-467.434, -691.412],
            [-476.526, -698.874],
            [-483.988, -707.966],
            [-489.533, -718.339],
            [-492.947, -729.595],
            [-494.1, -741.3],
            [-492.947, -753.005],
            [-489.533, -764.261],
            [-483.988, -774.634],
            [-476.526, -783.726],
            [-467.434, -791.188],
            [-457.061, -796.733],
            [-445.805, -800.147],
            [-434.1, -801.3],
            [-422.395, -800.147],
            [-411.139, -796.733],
            [-400.766, -791.188],
            [-391.674, -783.726],
            [-384.212, -774.634],
            [-378.667, -764.261],
            [-375.253, -753.005],
            [-374.1, -741.3]
          ]
        ]
      },
      "properties": {
        "zone_id": "nofly-ny-70pine",
        "kind": "nofly",
        "min_z_m": null,
        "max_z_m": null,
        "label": "No-fly: 70 Pine Street",
        "label_zh": "禁飞区：70 Pine",
        "origin": "curated",
        "editable": false
      }
    }
  ]
}
