{
  "type": "FeatureCollection",
  "awr": {
    "schema": "awr.zones.v1",
    "schema_version": "1.0.0",
    "world_id": "sanfrancisco",
    "frame": "world",
    "units": "m",
    "coordinate_sha256": "07dd653c320144ff31aa6259505f077e9e6fdb8b0882291dadd4045889a29e99",
    "source_sha256": null
  },
  "features": [
    {
      "type": "Feature",
      "id": "nofly-sf-sutro",
      "geometry": {
        "type": "Polygon",
        "coordinates": [
          [
            [-2675.9, -2612.5],
            [-2678.206, -2589.089],
            [-2685.034, -2566.578],
            [-2696.124, -2545.832],
            [-2711.047, -2527.647],
            [-2729.232, -2512.724],
            [-2749.978, -2501.634],
            [-2772.489, -2494.806],
            [-2795.9, -2492.5],
            [-2819.311, -2494.806],
            [-2841.822, -2501.634],
            [-2862.568, -2512.724],
            [-2880.753, -2527.647],
            [-2895.676, -2545.832],
            [-2906.766, -2566.578],
            [-2913.594, -2589.089],
            [-2915.9, -2612.5],
            [-2913.594, -2635.911],
            [-2906.766, -2658.422],
            [-2895.676, -2679.168],
            [-2880.753, -2697.353],
            [-2862.568, -2712.276],
            [-2841.822, -2723.366],
            [-2819.311, -2730.194],
            [-2795.9, -2732.5],
            [-2772.489, -2730.194],
            [-2749.978, -2723.366],
            [-2729.232, -2712.276],
            [-2711.047, -2697.353],
            [-2696.124, -2679.168],
            [-2685.034, -2658.422],
            [-2678.206, -2635.911],
            [-2675.9, -2612.5]
          ]
        ]
      },
      "properties": {
        "zone_id": "nofly-sf-sutro",
        "kind": "nofly",
        "min_z_m": null,
        "max_z_m": null,
        "label": "No-fly: Sutro Tower",
        "label_zh": "禁飞区：Sutro 塔",
        "origin": "curated",
        "editable": false
      }
    }
  ]
}
