{
  "type": "FeatureCollection",
  "awr": {
    "schema": "awr.zones.v1",
    "schema_version": "1.0.0",
    "world_id": "shanghai",
    "frame": "world",
    "units": "m",
    "coordinate_sha256": "e9e7d4b63faade01b98d54d94172fb28eb215c5783b9f9b65425d278b0d67cdc",
    "source_sha256": null
  },
  "features": [
    {
      "type": "Feature",
      "id": "nofly-sh-pearl",
      "geometry": {
        "type": "Polygon",
        "coordinates": [
          [
            [-3327.2, 1547.6],
            [-3329.121, 1567.109],
            [-3334.812, 1585.868],
            [-3344.053, 1603.157],
            [-3356.489, 1618.311],
            [-3371.643, 1630.747],
            [-3388.932, 1639.988],
            [-3407.691, 1645.679],
            [-3427.2, 1647.6],
            [-3446.709, 1645.679],
            [-3465.468, 1639.988],
            [-3482.757, 1630.747],
            [-3497.911, 1618.311],
            [-3510.347, 1603.157],
            [-3519.588, 1585.868],
            [-3525.279, 1567.109],
            [-3527.2, 1547.6],
            [-3525.279, 1528.091],
            [-3519.588, 1509.332],
            [-3510.347, 1492.043],
            [-3497.911, 1476.889],
            [-3482.757, 1464.453],
            [-3465.468, 1455.212],
            [-3446.709, 1449.521],
            [-3427.2, 1447.6],
            [-3407.691, 1449.521],
            [-3388.932, 1455.212],
            [-3371.643, 1464.453],
            [-3356.489, 1476.889],
            [-3344.053, 1492.043],
            [-3334.812, 1509.332],
            [-3329.121, 1528.091],
            [-3327.2, 1547.6]
          ]
        ]
      },
      "properties": {
        "zone_id": "nofly-sh-pearl",
        "kind": "nofly",
        "min_z_m": null,
        "max_z_m": null,
        "label": "No-fly: Oriental Pearl",
        "label_zh": "禁飞区：东方明珠",
        "origin": "curated",
        "editable": false
      }
    }
  ]
}
