{
  "type": "FeatureCollection",
  "awr": {
    "schema": "awr.zones.v1",
    "schema_version": "1.0.0",
    "world_id": "shenzhen",
    "frame": "world",
    "units": "m",
    "coordinate_sha256": "dee2f5f16b6c8a68b4aa6dae98dd720f44282b97eefd920c45463936674af994",
    "source_sha256": null
  },
  "features": [
    {
      "type": "Feature",
      "id": "nofly-sz-t2",
      "geometry": {
        "type": "Polygon",
        "coordinates": [
          [
            [-38, 346.5],
            [-39.153, 358.205],
            [-42.567, 369.461],
            [-48.112, 379.834],
            [-55.574, 388.926],
            [-64.666, 396.388],
            [-75.039, 401.933],
            [-86.295, 405.347],
            [-98, 406.5],
            [-109.705, 405.347],
            [-120.961, 401.933],
            [-131.334, 396.388],
            [-140.426, 388.926],
            [-147.888, 379.834],
            [-153.433, 369.461],
            [-156.847, 358.205],
            [-158, 346.5],
            [-156.847, 334.795],
            [-153.433, 323.539],
            [-147.888, 313.166],
            [-140.426, 304.074],
            [-131.334, 296.612],
            [-120.961, 291.067],
            [-109.705, 287.653],
            [-98, 286.5],
            [-86.295, 287.653],
            [-75.039, 291.067],
            [-64.666, 296.612],
            [-55.574, 304.074],
            [-48.112, 313.166],
            [-42.567, 323.539],
            [-39.153, 334.795],
            [-38, 346.5]
          ]
        ]
      },
      "properties": {
        "zone_id": "nofly-sz-t2",
        "kind": "nofly",
        "min_z_m": null,
        "max_z_m": null,
        "label": "No-fly: tower T2",
        "label_zh": "禁飞区：T2 塔",
        "origin": "curated",
        "editable": false
      }
    },
    {
      "type": "Feature",
      "id": "restricted-sz-t3",
      "geometry": {
        "type": "Polygon",
        "coordinates": [
          [
            [160, 162.5],
            [159.039, 172.255],
            [156.194, 181.634],
            [151.573, 190.279],
            [145.355, 197.855],
            [137.779, 204.073],
            [129.134, 208.694],
            [119.755, 211.539],
            [110, 212.5],
            [100.245, 211.539],
            [90.866, 208.694],
            [82.221, 204.073],
            [74.645, 197.855],
            [68.427, 190.279],
            [63.806, 181.634],
            [60.961, 172.255],
            [60, 162.5],
            [60.961, 152.745],
            [63.806, 143.366],
            [68.427, 134.721],
            [74.645, 127.145],
            [82.221, 120.927],
            [90.866, 116.306],
            [100.245, 113.461],
            [110, 112.5],
            [119.755, 113.461],
            [129.134, 116.306],
            [137.779, 120.927],
            [145.355, 127.145],
            [151.573, 134.721],
            [156.194, 143.366],
            [159.039, 152.745],
            [160, 162.5]
          ]
        ]
      },
      "properties": {
        "zone_id": "restricted-sz-t3",
        "kind": "restricted",
        "min_z_m": null,
        "max_z_m": null,
        "label": "Restricted: tower T3",
        "label_zh": "限制区：T3 塔",
        "origin": "curated",
        "editable": false
      }
    }
  ]
}
