{
  "type": "FeatureCollection",
  "awr": {
    "schema": "awr.zones.v1",
    "schema_version": "1.0.0",
    "world_id": "synthcity",
    "frame": "world",
    "units": "m",
    "coordinate_sha256": "5b607a060c922b48d883ad2b581bfc615474b42a6040e8343509ae5c935c66e8",
    "source_sha256": null
  },
  "features": [
    {
      "type": "Feature",
      "id": "nofly-sc-steptower",
      "geometry": {
        "type": "Polygon",
        "coordinates": [
          [
            [-7, -2],
            [-8.057, 8.73],
            [-11.187, 19.048],
            [-16.269, 28.556],
            [-23.109, 36.891],
            [-31.444, 43.731],
            [-40.952, 48.813],
            [-51.27, 51.943],
            [-62, 53],
            [-72.73, 51.943],
            [-83.048, 48.813],
            [-92.556, 43.731],
            [-100.891, 36.891],
            [-107.731, 28.556],
            [-112.813, 19.048],
            [-115.943, 8.73],
            [-117, -2],
            [-115.943, -12.73],
            [-112.813, -23.048],
            [-107.731, -32.556],
            [-100.891, -40.891],
            [-92.556, -47.731],
            [-83.048, -52.813],
            [-72.73, -55.943],
            [-62, -57],
            [-51.27, -55.943],
            [-40.952, -52.813],
            [-31.444, -47.731],
            [-23.109, -40.891],
            [-16.269, -32.556],
            [-11.187, -23.048],
            [-8.057, -12.73],
            [-7, -2]
          ]
        ]
      },
      "properties": {
        "zone_id": "nofly-sc-steptower",
        "kind": "nofly",
        "min_z_m": null,
        "max_z_m": null,
        "label": "No-fly: step tower",
        "label_zh": "禁飞区：阶梯塔",
        "origin": "curated",
        "editable": false
      }
    },
    {
      "type": "Feature",
      "id": "restricted-sc-pond",
      "geometry": {
        "type": "Polygon",
        "coordinates": [
          [
            [-470, 240],
            [-471.153, 251.705],
            [-474.567, 262.961],
            [-480.112, 273.334],
            [-487.574, 282.426],
            [-496.666, 289.888],
            [-507.039, 295.433],
            [-518.295, 298.847],
            [-530, 300],
            [-541.705, 298.847],
            [-552.961, 295.433],
            [-563.334, 289.888],
            [-572.426, 282.426],
            [-579.888, 273.334],
            [-585.433, 262.961],
            [-588.847, 251.705],
            [-590, 240],
            [-588.847, 228.295],
            [-585.433, 217.039],
            [-579.888, 206.666],
            [-572.426, 197.574],
            [-563.334, 190.112],
            [-552.961, 184.567],
            [-541.705, 181.153],
            [-530, 180],
            [-518.295, 181.153],
            [-507.039, 184.567],
            [-496.666, 190.112],
            [-487.574, 197.574],
            [-480.112, 206.666],
            [-474.567, 217.039],
            [-471.153, 228.295],
            [-470, 240]
          ]
        ]
      },
      "properties": {
        "zone_id": "restricted-sc-pond",
        "kind": "restricted",
        "min_z_m": null,
        "max_z_m": null,
        "label": "Restricted: park pond",
        "label_zh": "限制区：公园池塘",
        "origin": "curated",
        "editable": false
      }
    }
  ]
}
